{"type": "FeatureCollection", "features": [ {"type": "Feature", "properties": {"norad_id": 66848, "name": "STARLINK-36091", "group": "last-30-days", "lat": 2.91647828807204, "lon": 109.74703522828007, "alt_km": 316.36026054597096, "timestamp": "2025-12-15T07:02:36.375106+00:00", "meta": {"OBJECT_NAME": "STARLINK-36091", "OBJECT_ID": "2025-281A", "EPOCH": "2025-12-14T20:00:06.000192", "MEAN_MOTION": 15.85805365, "ECCENTRICITY": 0.00015369, "INCLINATION": 43.0006, "RA_OF_ASC_NODE": 109.4472, "ARG_OF_PERICENTER": 279.0579, "MEAN_ANOMALY": 336.4749, "EPHEMERIS_TYPE": 0, "CLASSIFICATION_TYPE": "U", "NORAD_CAT_ID": 66848, "ELEMENT_SET_NO": 999, "REV_AT_EPOCH": 173, "BSTAR": -0.0050014719, "MEAN_MOTION_DOT": -0.01112074, "MEAN_MOTION_DDOT": 0}, "tle": {"line1": "1 66848U 25281A   25348.83340278 -.01112074  00000+0 -50015-2 0  9997", "line2": "2 66848  43.0006 109.4472 0001536 279.0579 336.4749 15.85805365  1731"}}, "geometry": {"type": "Point", "coordinates": [109.74703522828007, 2.91647828807204]}}, {"type": "Feature", "properties": {"norad_id": 66849, "name": "STARLINK-36102", "group": "last-30-days", "lat": 4.525731173947452, "lon": 111.47919010030076, "alt_km": 316.2284793964054, "timestamp": "2025-12-15T07:02:36.375123+00:00", "meta": {"OBJECT_NAME": "STARLINK-36102", "OBJECT_ID": "2025-281B", "EPOCH": "2025-12-14T20:00:06.000192", "MEAN_MOTION": 15.85806731, "ECCENTRICITY": 0.00013944, "INCLINATION": 43.0008, "RA_OF_ASC_NODE": 109.4407, "ARG_OF_PERICENTER": 277.8104, "MEAN_ANOMALY": 340.0905, "EPHEMERIS_TYPE": 0, "CLASSIFICATION_TYPE": "U", "NORAD_CAT_ID": 66849, "ELEMENT_SET_NO": 999, "REV_AT_EPOCH": 173, "BSTAR": -0.0050180098, "MEAN_MOTION_DOT": -0.01115291, "MEAN_MOTION_DDOT": 0}, "tle": {"line1": "1 66849U 25281B   25348.83340278 -.01115291  00000+0 -50180-2 0  9995", "line2": "2 66849  43.0008 109.4407 0001394 277.8104 340.0905 15.85806731  1737"}}, "geometry": {"type": "Point", "coordinates": [111.47919010030076, 4.525731173947452]}}, {"type": "Feature", "properties": {"norad_id": 66850, "name": "STARLINK-36105", "group": "last-30-days", "lat": 6.591935161905253, "lon": 113.72269656163085, "alt_km": 316.16960772261973, "timestamp": "2025-12-15T07:02:36.375133+00:00", "meta": {"OBJECT_NAME": "STARLINK-36105", "OBJECT_ID": "2025-281C", "EPOCH": "2025-12-14T20:00:06.000192", "MEAN_MOTION": 15.85783131, "ECCENTRICITY": 0.0001636, "INCLINATION": 43.0004, "RA_OF_ASC_NODE": 109.433, "ARG_OF_PERICENTER": 273.5725, "MEAN_ANOMALY": 347.4123, "EPHEMERIS_TYPE": 0, "CLASSIFICATION_TYPE": "U", "NORAD_CAT_ID": 66850, "ELEMENT_SET_NO": 999, "REV_AT_EPOCH": 173, "BSTAR": -0.0050289588, "MEAN_MOTION_DOT": -0.0111643, "MEAN_MOTION_DDOT": 0}, "tle": {"line1": "1 66850U 25281C   25348.83340278 -.01116430  00000+0 -50290-2 0  9995", "line2": "2 66850  43.0004 109.4330 0001636 273.5725 347.4123 15.85783131  1732"}}, "geometry": {"type": "Point", "coordinates": [113.72269656163085, 6.591935161905253]}}, {"type": "Feature", "properties": {"norad_id": 66851, "name": "STARLINK-36094", "group": "last-30-days", "lat": 8.24696923136298, "lon": 115.54086055108189, "alt_km": 315.81612912163473, "timestamp": "2025-12-15T07:02:36.375143+00:00", "meta": {"OBJECT_NAME": "STARLINK-36094", "OBJECT_ID": "2025-281D", "EPOCH": "2025-12-14T20:00:06.000192", "MEAN_MOTION": 15.85791364, "ECCENTRICITY": 0.00014928, "INCLINATION": 43.0003, "RA_OF_ASC_NODE": 109.4268, "ARG_OF_PERICENTER": 281.5433, "MEAN_ANOMALY": 341.8959, "EPHEMERIS_TYPE": 0, "CLASSIFICATION_TYPE": "U", "NORAD_CAT_ID": 66851, "ELEMENT_SET_NO": 999, "REV_AT_EPOCH": 173, "BSTAR": -0.0051105367, "MEAN_MOTION_DOT": -0.01153674, "MEAN_MOTION_DDOT": 0}, "tle": {"line1": "1 66851U 25281D   25348.83340278 -.01153674  00000+0 -51105-2 0  9993", "line2": "2 66851  43.0003 109.4268 0001492 281.5433 341.8959 15.85791364  1739"}}, "geometry": {"type": "Point", "coordinates": [115.54086055108189, 8.24696923136298]}}, {"type": "Feature", "properties": {"norad_id": 66852, "name": "STARLINK-35992", "group": "last-30-days", "lat": 9.848037594858265, "lon": 117.32322168665078, "alt_km": 315.68916192221604, "timestamp": "2025-12-15T07:02:36.375153+00:00", "meta": {"OBJECT_NAME": "STARLINK-35992", "OBJECT_ID": "2025-281E", "EPOCH": "2025-12-14T20:00:06.000192", "MEAN_MOTION": 15.85788879, "ECCENTRICITY": 0.00016618, "INCLINATION": 43.0006, "RA_OF_ASC_NODE": 109.421, "ARG_OF_PERICENTER": 278.9468, "MEAN_ANOMALY": 346.8724, "EPHEMERIS_TYPE": 0, "CLASSIFICATION_TYPE": "U", "NORAD_CAT_ID": 66852, "ELEMENT_SET_NO": 999, "REV_AT_EPOCH": 173, "BSTAR": -0.0050859051, "MEAN_MOTION_DOT": -0.01148656, "MEAN_MOTION_DDOT": 0}, "tle": {"line1": "1 66852U 25281E   25348.83340278 -.01148656  00000+0 -50859-2 0  9993", "line2": "2 66852  43.0006 109.4210 0001661 278.9468 346.8724 15.85788879  1738"}}, "geometry": {"type": "Point", "coordinates": [117.32322168665078, 9.848037594858265]}}, {"type": "Feature", "properties": {"norad_id": 66853, "name": "STARLINK-35986", "group": "last-30-days", "lat": 11.989719239214589, "lon": 119.75219346666452, "alt_km": 315.53513658146494, "timestamp": "2025-12-15T07:02:36.375163+00:00", "meta": {"OBJECT_NAME": "STARLINK-35986", "OBJECT_ID": "2025-281F", "EPOCH": "2025-12-14T20:00:06.000192", "MEAN_MOTION": 15.85768428, "ECCENTRICITY": 0.00016965, "INCLINATION": 43.0007, "RA_OF_ASC_NODE": 109.4127, "ARG_OF_PERICENTER": 279.1814, "MEAN_ANOMALY": 349.8933, "EPHEMERIS_TYPE": 0, "CLASSIFICATION_TYPE": "U", "NORAD_CAT_ID": 66853, "ELEMENT_SET_NO": 999, "REV_AT_EPOCH": 173, "BSTAR": -0.0051572164, "MEAN_MOTION_DOT": -0.01162043, "MEAN_MOTION_DDOT": 0}, "tle": {"line1": "1 66853U 25281F   25348.83340278 -.01162043  00000+0 -51572-2 0  9993", "line2": "2 66853  43.0007 109.4127 0001696 279.1814 349.8933 15.85768428  1736"}}, "geometry": {"type": "Point", "coordinates": [119.75219346666452, 11.989719239214589]}}, {"type": "Feature", "properties": {"norad_id": 66854, "name": "STARLINK-36087", "group": "last-30-days", "lat": 14.024332124870297, "lon": 122.11870845087486, "alt_km": 315.46516280687047, "timestamp": "2025-12-15T07:02:36.375190+00:00", "meta": {"OBJECT_NAME": "STARLINK-36087", "OBJECT_ID": "2025-281G", "EPOCH": "2025-12-14T20:00:06.000192", "MEAN_MOTION": 15.85747401, "ECCENTRICITY": 0.00017518, "INCLINATION": 43.0006, "RA_OF_ASC_NODE": 109.4045, "ARG_OF_PERICENTER": 276.0965, "MEAN_ANOMALY": 356.099, "EPHEMERIS_TYPE": 0, "CLASSIFICATION_TYPE": "U", "NORAD_CAT_ID": 66854, "ELEMENT_SET_NO": 999, "REV_AT_EPOCH": 173, "BSTAR": -0.0052010833, "MEAN_MOTION_DOT": -0.01169831, "MEAN_MOTION_DDOT": 0}, "tle": {"line1": "1 66854U 25281G   25348.83340278 -.01169831  00000+0 -52011-2 0  9995", "line2": "2 66854  43.0006 109.4045 0001751 276.0965 356.0990 15.85747401  1731"}}, "geometry": {"type": "Point", "coordinates": [122.11870845087486, 14.024332124870297]}}, {"type": "Feature", "properties": {"norad_id": 66855, "name": "STARLINK-36090", "group": "last-30-days", "lat": 15.717510806610035, "lon": 124.14198496018345, "alt_km": 315.2712799122992, "timestamp": "2025-12-15T07:02:36.375202+00:00", "meta": {"OBJECT_NAME": "STARLINK-36090", "OBJECT_ID": "2025-281H", "EPOCH": "2025-12-14T20:00:06.000192", "MEAN_MOTION": 15.85751868, "ECCENTRICITY": 0.00016536, "INCLINATION": 43.0007, "RA_OF_ASC_NODE": 109.3982, "ARG_OF_PERICENTER": 276.5392, "MEAN_ANOMALY": 358.2546, "EPHEMERIS_TYPE": 0, "CLASSIFICATION_TYPE": "U", "NORAD_CAT_ID": 66855, "ELEMENT_SET_NO": 999, "REV_AT_EPOCH": 161, "BSTAR": -0.0052811065, "MEAN_MOTION_DOT": -0.01186074, "MEAN_MOTION_DDOT": 0}, "tle": {"line1": "1 66855U 25281H   25348.83340278 -.01186074  00000+0 -52811-2 0  9992", "line2": "2 66855  43.0007 109.3982 0001653 276.5392 358.2546 15.85751868  1612"}}, "geometry": {"type": "Point", "coordinates": [124.14198496018345, 15.717510806610035]}}, {"type": "Feature", "properties": {"norad_id": 66856, "name": "STARLINK-36072", "group": "last-30-days", "lat": 17.602458494289568, "lon": 126.46226827975893, "alt_km": 315.05308347395567, "timestamp": "2025-12-15T07:02:36.375215+00:00", "meta": {"OBJECT_NAME": "STARLINK-36072", "OBJECT_ID": "2025-281J", "EPOCH": "2025-12-14T20:00:06.000192", "MEAN_MOTION": 15.85733185, "ECCENTRICITY": 0.00015688, "INCLINATION": 43.0005, "RA_OF_ASC_NODE": 109.3905, "ARG_OF_PERICENTER": 277.297, "MEAN_ANOMALY": 0.4456, "EPHEMERIS_TYPE": 0, "CLASSIFICATION_TYPE": "U", "NORAD_CAT_ID": 66856, "ELEMENT_SET_NO": 999, "REV_AT_EPOCH": 173, "BSTAR": -0.0052792675, "MEAN_MOTION_DOT": -0.01184684, "MEAN_MOTION_DDOT": 0}, "tle": {"line1": "1 66856U 25281J   25348.83340278 -.01184684  00000+0 -52793-2 0  9997", "line2": "2 66856  43.0005 109.3905 0001568 277.2970   0.4456 15.85733185  1732"}}, "geometry": {"type": "Point", "coordinates": [126.46226827975893, 17.602458494289568]}}, {"type": "Feature", "properties": {"norad_id": 66857, "name": "STARLINK-36083", "group": "last-30-days", "lat": 19.19612332997933, "lon": 128.48998133247446, "alt_km": 314.80599344515304, "timestamp": "2025-12-15T07:02:36.375226+00:00", "meta": {"OBJECT_NAME": "STARLINK-36083", "OBJECT_ID": "2025-281K", "EPOCH": "2025-12-14T20:00:06.000192", "MEAN_MOTION": 15.85734835, "ECCENTRICITY": 0.00016107, "INCLINATION": 43.0004, "RA_OF_ASC_NODE": 109.3843, "ARG_OF_PERICENTER": 280.3253, "MEAN_ANOMALY": 359.9213, "EPHEMERIS_TYPE": 0, "CLASSIFICATION_TYPE": "U", "NORAD_CAT_ID": 66857, "ELEMENT_SET_NO": 999, "REV_AT_EPOCH": 173, "BSTAR": -0.0053138188, "MEAN_MOTION_DOT": -0.01191711, "MEAN_MOTION_DDOT": 0}, "tle": {"line1": "1 66857U 25281K   25348.83340278 -.01191711  00000+0 -53138-2 0  9991", "line2": "2 66857  43.0004 109.3843 0001610 280.3253 359.9213 15.85734835  1736"}}, "geometry": {"type": "Point", "coordinates": [128.48998133247446, 19.19612332997933]}}]}